0 COSMOS 249 DEB
1 14410U 68091CL  13283.25152536  .00008867  00000-0  49926-2 0  2792
2 14410 062.2285 018.8241 0516905 168.7391 222.9122 13.59300360466761
0 COSMOS 249 DEB
1 14410U 68091CL  13285.70549436  .00006078  00000-0  34456-2 0  2809
2 14410 062.2289 012.0690 0516439 169.3844 351.4759 13.59332003467103
0 COSMOS 249 DEB
1 14410U 68091CL  13287.31595686  .00005913  00000-0  33554-2 0  2812
2 14410 062.2303 007.6370 0516179 169.7795 312.4911 13.59352019467325
0 COSMOS 249 DEB
1 14410U 68091CL  13288.25538206  .00008634  00000-0  48713-2 0  2828
2 14410 062.2303 005.0513 0516007 170.0139 229.7477 13.59367292467453
0 COSMOS 249 DEB
1 14410U 68091CL  13289.30234782  .00006625  00000-0  37554-2 0  2837
2 14410 062.2302 002.1697 0515727 170.2982 313.3125 13.59382944467595
0 COSMOS 249 DEB
1 14410U 68091CL  13291.19705769  .00005250  00000-0  29921-2 0  2848
2 14410 062.2296 356.9543 0515308 170.7903 225.6563 13.59406358467856
0 COSMOS 249 DEB
1 14410U 68091CL  13292.61863134  .00005094  00000-0  29075-2 0  2854
2 14410 062.2288 353.0407 0514972 171.1649 342.6632 13.59420374468045
0 COSMOS 249 DEB
1 14410U 68091CL  13295.10757898  .00005273  00000-0  30102-2 0  2863
2 14410 062.2286 346.1884 0514541 171.7909 283.4668 13.59443570468383
0 COSMOS 249 DEB
1 14410U 68091CL  13296.13998227  .00005255  00000-0  30024-2 0  2874
2 14410 062.2283 343.3461 0514258 172.0638 296.0462 13.59453234468524
